STARLINK-30752          
1 58171U 23166X   26068.70276217  .00001340  00000+0  57397-4 0  9996
2 58171  53.1596 219.3766 0001074  78.3116 281.8005 15.30185387133186
NUSHSAT1                
1 63211U 25052B   26068.64700493  .00023034  00000+0  74857-3 0  9997
2 63211  97.4095 325.7239 0005501  84.7512 275.4357 15.31903202 54882
